{
    "links": {
        "self": "http://www.neowsapp.com/rest/v1/neo/3841504?api_key=iIulBulltgU6a56xZRHN4H3l9WmuAYTsLGpBGhQ2"
    },
    "id": "3841504",
    "neo_reference_id": "3841504",
    "name": "(2019 GJ21)",
    "designation": "2019 GJ21",
    "nasa_jpl_url": "http://ssd.jpl.nasa.gov/sbdb.cgi?sstr=3841504",
    "absolute_magnitude_h": 23.9,
    "estimated_diameter": {
        "kilometers": {
            "estimated_diameter_min": 0.04411182,
            "estimated_diameter_max": 0.0986370281
        },
        "meters": {
            "estimated_diameter_min": 44.1118199997,
            "estimated_diameter_max": 98.6370281305
        },
        "miles": {
            "estimated_diameter_min": 0.0274098057,
            "estimated_diameter_max": 0.0612901888
        },
        "feet": {
            "estimated_diameter_min": 144.7238235278,
            "estimated_diameter_max": 323.6123073718
        }
    },
    "is_potentially_hazardous_asteroid": false,
    "close_approach_data": [
        {
            "close_approach_date": "2019-04-10",
            "close_approach_date_full": "2019-Apr-10 08:55",
            "epoch_date_close_approach": 1554886500000,
            "relative_velocity": {
                "kilometers_per_second": "8.0226213458",
                "kilometers_per_hour": "28881.4368447213",
                "miles_per_hour": "17945.8016883214"
            },
            "miss_distance": {
                "astronomical": "0.0923460467",
                "lunar": "35.9226121663",
                "kilometers": "13814771.889240529",
                "miles": "8584101.2019121402"
            },
            "orbiting_body": "Earth"
        }
    ],
    "orbital_data": {
        "orbit_id": "9",
        "orbit_determination_date": "2019-05-22 07:54:33",
        "first_observation_date": "2019-04-14",
        "last_observation_date": "2019-05-14",
        "data_arc_in_days": 30,
        "observations_used": 76,
        "orbit_uncertainty": "8",
        "minimum_orbit_intersection": ".0842872",
        "jupiter_tisserand_invariant": "3.386",
        "epoch_osculation": "2458594.5",
        "eccentricity": ".5402775295296074",
        "semi_major_axis": "2.285026109293049",
        "inclination": "6.169427097246954",
        "ascending_node_longitude": "43.25591550124419",
        "orbital_period": "1261.639207848007",
        "perihelion_distance": "1.05047784805355",
        "perihelion_argument": "134.9584413937721",
        "aphelion_distance": "3.519574370532548",
        "perihelion_time": "2458566.343176586788",
        "mean_anomaly": "8.034354327055352",
        "mean_motion": ".2853430661956491",
        "equinox": "J2000",
        "orbit_class": {
            "orbit_class_type": "AMO",
            "orbit_class_description": "Near-Earth asteroid orbits similar to that of 1221 Amor",
            "orbit_class_range": "1.017 AU < q (perihelion) < 1.3 AU"
        }
    },
    "is_sentry_object": false
}